GLOBALSTAR M057 [-]     
1 25943U 99058A   23286.72665465 -.00000037  00000+0  51245-3 0  9996
2 25943  51.9975 286.2773 0002482 187.8955 172.1855 12.24774724 91880
GLOBALSTAR M059 [-]     
1 25944U 99058B   23286.67484921 -.00000086  00000+0 -12143-5 0  9998
2 25944  52.0024  64.1733 0000860 125.7050 248.3389 11.99954096500518
GLOBALSTAR M056 [-]     
1 25945U 99058C   23287.37866875 -.00000062  00000+0  30090-3 0  9991
2 25945  51.9955  79.9489 0001607  76.1201 297.1979 12.04770106 88927
GLOBALSTAR M031 [-]     
1 25946U 99058D   23286.55413890  .00000011  00000+0  10268-2 0  9993
2 25946  51.9994  11.1751 0001622  34.8335  67.0769 12.15997225 90016
GLOBALSTAR M039 [-]     
1 25961U 99062A   23287.40562689 -.00000068  00000+0  19934-3 0  9994
2 25961  51.9861 331.9944 0003124  75.7439 284.3774 12.62271592102985
GLOBALSTAR M034 [-]     
1 25962U 99062B   23286.96590164 -.00000046  00000+0  54995-3 0  9996
2 25962  51.9847 162.7667 0013878 329.2365  43.3498 11.79415955 66158
GLOBALSTAR M029 [-]     
1 25963U 99062C   23286.84461306 -.00000049  00000+0  46148-3 0  9993
2 25963  51.9810 312.2788 0002629   0.7239 170.3440 11.99868744 95664
GLOBALSTAR M061 [-]     
1 25964U 99062D   23287.20076032 -.00000030  00000+0  82420-3 0  9996
2 25964  51.9817 338.0847 0005728 253.5880 140.5304 11.76751661 49422
